IRIDIUM 112             
1 41925U 17003J   24340.91562326  .00000668  00000+0  23159-3 0  9991
2 41925  86.3947 321.5989 0002599  90.3999 269.7495 14.34214032413252
IRIDIUM 111             
1 41926U 17003K   24340.90294003  .00000275  00000+0  91147-4 0  9992
2 41926  86.3950 321.6633 0002294  84.4146 275.7311 14.34215565413238
IRIDIUM 113             
1 42803U 17039A   24340.67360297  .00000032  00000+0  42988-5 0  9990
2 42803  86.4008 195.5503 0002474  86.4000 273.7478 14.34216282391136
IRIDIUM 123             
1 42804U 17039B   24340.43600333  .00000575  00000+0  19824-3 0  9996
2 42804  86.3993 227.0920 0001927  76.2529 283.8881 14.34220740389869
IRIDIUM 120             
1 42805U 17039C   24340.66725961  .00000710  00000+0  24628-3 0  9996
2 42805  86.3994 195.4080 0001748  83.9255 276.2140 14.34219398391121
IRIDIUM 115             
1 42806U 17039D   24340.65866551  .00000377  00000+0  10607-3 0  9998
2 42806  86.4533 195.4617 0002082  73.8148 286.3281 14.43273592393709
IRIDIUM 118             
1 42807U 17039E   24340.74679494  .00000692  00000+0  24007-3 0  9996
2 42807  86.3994 226.9627 0002091  85.0687 275.0748 14.34212833389905
IRIDIUM 117             
1 42808U 17039F   24340.76581217  .00000449  00000+0  15328-3 0  9990
2 42808  86.3995 226.9175 0001978  75.7918 284.3498 14.34215116389936
